[{"OBJECT_NAME":"TIANMU-1 09","OBJECT_ID":"2023-101C","EPOCH":"2026-03-09T22:17:34.703232","MEAN_MOTION":15.29080822,"ECCENTRICITY":0.00049013,"INCLINATION":97.267,"RA_OF_ASC_NODE":121.1263,"ARG_OF_PERICENTER":139.4293,"MEAN_ANOMALY":220.7314,"EPHEMERIS_TYPE":0,"CLASSIFICATION_TYPE":"U","NORAD_CAT_ID":57401,"ELEMENT_SET_NO":999,"REV_AT_EPOCH":14647,"BSTAR":0.00030540035,"MEAN_MOTION_DOT":8.553e-5,"MEAN_MOTION_DDOT":0},{"OBJECT_NAME":"STARLINK-31782","OBJECT_ID":"2024-080F","EPOCH":"2026-03-09T00:10:02.355744","MEAN_MOTION":15.27579787,"ECCENTRICITY":0.00012659,"INCLINATION":43.0026,"RA_OF_ASC_NODE":45.6133,"ARG_OF_PERICENTER":267.9937,"MEAN_ANOMALY":92.077,"EPHEMERIS_TYPE":0,"CLASSIFICATION_TYPE":"U","NORAD_CAT_ID":59606,"ELEMENT_SET_NO":999,"REV_AT_EPOCH":10438,"BSTAR":2.8974584e-5,"MEAN_MOTION_DOT":5.35e-6,"MEAN_MOTION_DDOT":0}]
